{"type": "FeatureCollection", "features": [{"type": "Feature", "properties": {"access": "permit", "alt_name": "\u0412\u0423\u0413\u041f\u0417", "boundary": "protected_area", "description": "\u0413\u043e\u0441\u0443\u0434\u0430\u0440\u0441\u0442\u0432\u0435\u043d\u043d\u044b\u0439 \u0440\u0430\u0434\u0438\u0430\u0446\u0438\u043e\u043d\u043d\u044b\u0439 \u0437\u0430\u043f\u043e\u0432\u0435\u0434\u043d\u0438\u043a. \u0421\u043e\u0437\u0434\u0430\u043d \u0432 1966 \u0433\u043e\u0434\u0443. \u0415\u0433\u043e \u043e\u0431\u0440\u0430\u0437\u043e\u0432\u0430\u043d\u0438\u044e \u043f\u0440\u0435\u0434\u0448\u0435\u0441\u0442\u0432\u043e\u0432\u0430\u043b\u0430 \u0430\u0432\u0430\u0440\u0438\u044f 1957 \u0433. \u043d\u0430 \u0445\u0438\u043c\u043a\u043e\u043c\u0431\u0438\u043d\u0430\u0442\u0435 \u00ab\u041c\u0430\u044f\u043a\u00bb, \u043f\u0440\u0438\u0432\u0435\u0434\u0448\u0430\u044f \u043a \u0440\u0430\u0434\u0438\u043e\u0430\u043a\u0442\u0438\u0432\u043d\u043e\u043c\u0443 \u0437\u0430\u0440\u0430\u0436\u0435\u043d\u0438\u044e \u0434\u0430\u043d\u043d\u043e\u0439 \u0442\u0435\u0440\u0440\u0438\u0442\u043e\u0440\u0438\u0438. \u0412 \u043d\u0430\u0441\u0442\u043e\u044f\u0449\u0435\u0435 \u0432\u0440\u0435\u043c\u044f \u0432\u0435\u0434\u0451\u0442\u0441\u044f \u043e\u0444\u043e\u0440\u043c\u043b\u0435\u043d\u0438\u0435 \u0442\u0435\u0440\u0440\u0438\u0442\u043e\u0440\u0438\u0438 \u0432 \u041c\u041f\u0420, \u043a\u0430\u043a \u041e\u041e\u041f\u0422.", "hazard": "radiation", "image": "https://upload.wikimedia.org/wikipedia/commons/7/79/Ostural-Spur.png", "int_name": "Vostochno-Ural'sky radiatsionny zapovednik", "leisure": "nature_reserve", "name": "\u0412\u043e\u0441\u0442\u043e\u0447\u043d\u043e-\u0423\u0440\u0430\u043b\u044c\u0441\u043a\u0438\u0439 \u0433\u043e\u0441\u0443\u0434\u0430\u0440\u0441\u0442\u0432\u0435\u043d\u043d\u044b\u0439 \u043f\u0440\u0438\u0440\u043e\u0434\u043d\u044b\u0439 \u0437\u0430\u043f\u043e\u0432\u0435\u0434\u043d\u0438\u043a", "name:ba": "\u041a\u04e9\u043d\u0441\u044b\u0493\u044b\u0448 \u0423\u0440\u0430\u043b \u0440\u0430\u0434\u0438\u0430\u0446\u0438\u044f \u04a1\u0443\u0440\u0441\u0430\u0443\u043b\u044b\u0493\u044b", "name:en": "East Ural Radiation Reserve", "name:fa": "\u0630\u062e\u06cc\u0631\u0647\u200c\u06af\u0627\u0647 \u0637\u0628\u06cc\u0639\u06cc \u0627\u0648\u0631\u0627\u0644 \u0634\u0631\u0642\u06cc", "name:fr": "R\u00e9serve naturelle de l'Oural oriental", "name:nl": "Zapovednik Vostotsjno-Oeralski", "name:pl": "Rezerwat przyrody \u201eWostoczno-Uralskij\u201d", "operator": "\u041f\u0440\u043e\u0438\u0437\u0432\u043e\u0434\u0441\u0442\u0432\u0435\u043d\u043d\u043e\u0435 \u043e\u0431\u044a\u0435\u0434\u0438\u043d\u0435\u043d\u0438\u0435 \u00ab\u041c\u0430\u044f\u043a\u00bb", "protect_class": "16", "protected": "perpetuity", "short_name": "\u0412\u0423\u0413\u041f\u0417;\u0412\u0423\u0420\u0417; \u0412\u0423\u0420\u0421;", "start_date": "1966", "website": "https://uraloved.ru/vostochno-uralskiy-zapovednik", "wikidata": "Q4126512", "wikipedia": "ru:\u0412\u043e\u0441\u0442\u043e\u0447\u043d\u043e-\u0423\u0440\u0430\u043b\u044c\u0441\u043a\u0438\u0439 \u0437\u0430\u043f\u043e\u0432\u0435\u0434\u043d\u0438\u043a", "osm": "way/256825533"}, "geometry": {"type": "Polygon", "coordinates": [[[60.813266, 55.755847], [60.8096113, 55.7590959], [60.8079653, 55.7665269], [60.8087132, 55.7696463], [60.8094531, 55.7732673], [60.8100255, 55.7760699], [60.8119185, 55.7812524], [60.8141815, 55.7819226], [60.8153781, 55.7831342], [60.8259584, 55.7913789], [60.8268795, 55.7978006], [60.8358227, 55.8069575], [60.8220966, 55.812319], [60.8345365, 55.8234374], [60.8351252, 55.8239635], [60.8459612, 55.8215125], [60.8477462, 55.8211087], [60.8483032, 55.8209827], [60.8732853, 55.8478947], [60.8833993, 55.8478947], [60.8948497, 55.8601813], [60.8961623, 55.8604423], [60.897228, 55.8607401], [60.8985249, 55.8615001], [60.901286, 55.8623268], [60.9025147, 55.8634388], [60.9028626, 55.8645607], [60.9039327, 55.8654701], [60.9051563, 55.866861], [60.903605, 55.8725233], [60.9021017, 55.8778516], [60.908797, 55.8862507], [60.9122472, 55.886125], [60.9246405, 55.8833236], [60.927331, 55.8853845], [60.9352154, 55.8853705], [60.9360952, 55.8889581], [60.9411637, 55.8910564], [60.9428241, 55.8917437], [60.9459595, 55.8997537], [60.9460059, 55.9063095], [60.9518695, 55.9053693], [60.9610837, 55.9035224], [60.9665132, 55.9018651], [60.9710097, 55.9018809], [60.9756424, 55.9023306], [60.9775061, 55.9054917], [60.985219, 55.919086], [60.9940466, 55.9337063], [60.9920847, 55.9361294], [60.9934921, 55.9432231], [60.9943414, 55.9462966], [61.0023505, 55.9480477], [61.0089233, 55.9478899], [61.015353, 55.949296], [61.0166086, 55.9520006], [61.0268357, 55.9593378], [61.0344478, 55.9626873], [61.0368679, 55.9646466], [61.0373214, 55.9675334], [61.0401841, 55.9738982], [61.0417471, 55.9725799], [61.0448209, 55.9695809], [61.0501102, 55.9663475], [61.0533396, 55.9642308], [61.0595518, 55.958941], [61.0649561, 55.944837], [61.0654013, 55.9420049], [61.0660355, 55.9349804], [61.0711481, 55.9275666], [61.0722647, 55.9214631], [61.0731482, 55.9190551], [61.0734928, 55.9160595], [61.0730527, 55.9146203], [61.0704875, 55.9089536], [61.0703212, 55.906675], [61.0687579, 55.9023868], [61.0674101, 55.899457], [61.0660523, 55.8972751], [61.0486214, 55.8995867], [61.0412192, 55.8916212], [61.0378206, 55.8888853], [61.0309176, 55.8813659], [61.0239825, 55.8751296], [61.0161837, 55.8668962], [61.0156361, 55.8663181], [61.0137791, 55.8641989], [61.0092265, 55.8601133], [61.0096738, 55.8595411], [61.0123616, 55.8561026], [61.0011666, 55.8521557], [61.0025413, 55.8475298], [61.0010352, 55.8458634], [61.0017369, 55.8390678], [61.0027928, 55.8381685], [61.0049832, 55.8363029], [61.0057235, 55.8348107], [60.9684641, 55.8274512], [60.9623853, 55.8243973], [60.9608026, 55.8219983], [60.9635844, 55.8208537], [60.9652828, 55.8191624], [60.9650996, 55.8152568], [60.9642353, 55.8126522], [60.9638762, 55.8104128], [60.96231, 55.8090062], [60.9657135, 55.8021359], [60.9599106, 55.7964387], [60.9582736, 55.7952768], [60.956787, 55.7942282], [60.9533476, 55.7912363], [60.9534481, 55.7910419], [60.9520116, 55.7889277], [60.9516194, 55.7883676], [60.9522266, 55.7871045], [60.9513096, 55.7855207], [60.9505283, 55.7849393], [60.9496171, 55.7846232], [60.9482149, 55.7833265], [60.9472247, 55.7830085], [60.9458658, 55.7803232], [60.9443381, 55.7774041], [60.9443589, 55.776494], [60.9425258, 55.7763385], [60.9413508, 55.7754592], [60.941008, 55.7741054], [60.9407223, 55.7662391], [60.9430026, 55.761443], [60.9468484, 55.7559642], [60.9397353, 55.7522813], [60.9164497, 55.7379387], [60.9106418, 55.736735], [60.909894, 55.7358853], [60.9078359, 55.7355429], [60.9005663, 55.7354998], [60.8631864, 55.7484185], [60.8610581, 55.749079], [60.8481406, 55.7540061], [60.8364705, 55.7542235], [60.818495, 55.754444], [60.8150998, 55.7544911], [60.813266, 55.755847]]]}}]}