{"type": "FeatureCollection", "features": [{"type": "Feature", "properties": {"alt_name": "\u0420\u0430\u0434\u0438\u043e\u0445\u0438\u043c\u0438\u0447\u0435\u0441\u043a\u0438\u0439 \u0437\u0430\u0432\u043e\u0434 \u2116235", "barrier": "wall", "contact:email": "mayak@po-mayak.ru", "contact:facebook": "https://www.facebook.com/groups/mayakworld/", "contact:instagram": "https://www.instagram.com/pomayak", "contact:phone": "+7 35130 33105", "contact:vk": "https://vk.com/mayak_ozersk", "contact:website": "https://www.po-mayak.ru", "hazard": "nuclear", "hazmat:7": "yes", "image": "https://upload.wikimedia.org/wikipedia/commons/1/1e/Ecodefense_Mayak_Exhibition_07_Ozersk.jpg", "int_name": "Proizvodstvennoe ob\"edinenie \u00abMayak\u00bb", "landuse": "industrial", "name": "\u041f\u0440\u043e\u0438\u0437\u0432\u043e\u0434\u0441\u0442\u0432\u0435\u043d\u043d\u043e\u0435 \u043e\u0431\u044a\u0435\u0434\u0438\u043d\u0435\u043d\u0438\u0435 \u00ab\u041c\u0430\u044f\u043a\u00bb", "name:ar": "\u0645\u0627\u064a\u0627\u0643", "name:az": "Mayak istehsalat ittifaq\u0131", "name:bg": "\u041c\u0430\u044f\u043a (\u043a\u043e\u043c\u043f\u043b\u0435\u043a\u0441)", "name:ca": "Associaci\u00f3 de Producci\u00f3 \u00abMaiak\u00bb", "name:cs": "Majak", "name:da": "Majak", "name:de": "Kerntechnische Anlage Majak", "name:en": "Mayak production association", "name:es": "Mayak (central nuclear)", "name:eu": "Maiak", "name:fi": "Majak", "name:fr": "Complexe nucl\u00e9aire Ma\u00efak", "name:he": "\u05de\u05d0\u05d9\u05d0\u05e7", "name:hu": "Majak", "name:it": "Majak", "name:ja": "\u30de\u30e4\u30fc\u30af\u6838\u6280\u8853\u65bd\u8a2d", "name:ko": "\ub9c8\uc57c\ud06c \uc7ac\ucc98\ub9ac \uacf5\uc7a5", "name:nl": "Majak", "name:nn": "Majak", "name:no": "Majak", "name:pl": "Majak", "name:pt": "Mayak Associa\u00e7\u00e3o de Produ\u00e7\u00e3o", "name:ru": "\u041f\u0440\u043e\u0438\u0437\u0432\u043e\u0434\u0441\u0442\u0432\u0435\u043d\u043d\u043e\u0435 \u043e\u0431\u044a\u0435\u0434\u0438\u043d\u0435\u043d\u0438\u0435 \u00ab\u041c\u0430\u044f\u043a\u00bb", "name:ru:word_stress": "\u041f\u0440\u043e\u0438\u0437\u0432\u043e\u0301\u0434\u0441\u0442\u0432\u0435\u043d\u043d\u043e\u0435 \u043e\u0431\u044a\u0435\u0434\u0438\u043d\u0435\u0301\u043d\u0438\u0435 \u041c\u0430\u044f\u0301\u043a", "name:sk": "Majak", "name:sv": "Majak", "name:tr": "Mayak \u00dcretim Birli\u011fi", "name:uk": "\u0412\u0438\u0440\u043e\u0431\u043d\u0438\u0447\u0435 \u043e\u0431'\u0454\u0434\u043d\u0430\u043d\u043d\u044f \u00ab\u041c\u0430\u044f\u043a\u00bb", "name:zh": "\u9a6c\u96c5\u514b\u751f\u4ea7\u8054\u5408\u4f53", "official_name": "\u0424\u0435\u0434\u0435\u0440\u0430\u043b\u044c\u043d\u043e\u0435 \u0433\u043e\u0441\u0443\u0434\u0430\u0440\u0441\u0442\u0432\u0435\u043d\u043d\u043e\u0435 \u0443\u043d\u0438\u0442\u0430\u0440\u043d\u043e\u0435 \u043f\u0440\u0435\u0434\u043f\u0440\u0438\u044f\u0442\u0438\u0435 \u00ab\u041f\u0440\u043e\u0438\u0437\u0432\u043e\u0434\u0441\u0442\u0432\u0435\u043d\u043d\u043e\u0435 \u043e\u0431\u044a\u0435\u0434\u0438\u043d\u0435\u043d\u0438\u0435 \u00ab\u041c\u0430\u044f\u043a\u00bb", "old_name": "\u041a\u043e\u043c\u0431\u0438\u043d\u0430\u0442 \u2116817", "owner": "Federal State Unitary Enterprise \"Mayak Production Association\" State Enterprise \"Rosatom\"", "owner:ru": "\u0424\u0435\u0434\u0435\u0440\u0430\u043b\u044c\u043d\u043e\u0435 \u0433\u043e\u0441\u0443\u0434\u0430\u0440\u0441\u0442\u0432\u0435\u043d\u043d\u043e\u0435 \u0443\u043d\u0438\u0442\u0430\u0440\u043d\u043e\u0435 \u043f\u0440\u0435\u0434\u043f\u0440\u0438\u044f\u0442\u0438\u0435 \u00ab\u041f\u0440\u043e\u0438\u0437\u0432\u043e\u0434\u0441\u0442\u0432\u0435\u043d\u043d\u043e\u0435 \u043e\u0431\u044a\u0435\u0434\u0438\u043d\u0435\u043d\u0438\u0435 \u00ab\u041c\u0430\u044f\u043a\u00bb \u041f\u0440\u0435\u0434\u043f\u0440\u0438\u044f\u0442\u0438\u0435 \u0433\u043e\u0441\u043a\u043e\u0440\u043f\u043e\u0440\u0430\u0446\u0438\u0438 \u00ab\u0420\u043e\u0441\u0430\u0442\u043e\u043c\u00bb", "start_date": "1948-06-19", "wikidata": "Q612137", "wikimedia_commons": "Category:Mayak nuclear facility", "wikipedia": "ru:\u041c\u0430\u044f\u043a (\u043f\u0440\u043e\u0438\u0437\u0432\u043e\u0434\u0441\u0442\u0432\u0435\u043d\u043d\u043e\u0435 \u043e\u0431\u044a\u0435\u0434\u0438\u043d\u0435\u043d\u0438\u0435)", "osm": "way/109744083"}, "geometry": {"type": "Polygon", "coordinates": [[[60.7545642, 55.7141455], [60.7560241, 55.7141213], [60.7573325, 55.7142579], [60.7598261, 55.7147347], [60.760962, 55.7159152], [60.7625603, 55.7169511], [60.766287, 55.7170462], [60.7680039, 55.7174995], [60.7684805, 55.7181585], [60.7720575, 55.7180319], [60.781, 55.71475], [60.78725, 55.71525], [60.789, 55.71575], [60.7903903, 55.7167141], [60.7981458, 55.721409], [60.8063967, 55.7268019], [60.8081777, 55.7285238], [60.8090038, 55.7300643], [60.8094007, 55.731333], [60.8094866, 55.7322754], [60.8115749, 55.7334032], [60.8235821, 55.7338171], [60.8244263, 55.7337234], [60.8248392, 55.7335152], [60.8249411, 55.7321501], [60.8314447, 55.7248174], [60.8320732, 55.7222003], [60.8381879, 55.7159119], [60.838499, 55.7159789], [60.8386056, 55.7158169], [60.8388767, 55.7154471], [60.8387565, 55.715404], [60.8441093, 55.7102176], [60.8425356, 55.7092083], [60.8307591, 55.7016547], [60.8118195, 55.6866425], [60.8201189, 55.6686737], [60.8099392, 55.6661562], [60.7838721, 55.6678345], [60.778777, 55.6698183], [60.7749709, 55.6718647], [60.7752205, 55.6718691], [60.7751581, 55.6721225], [60.7749204, 55.6721219], [60.7744625, 55.6721212], [60.7710786, 55.6714591], [60.7344159, 55.6646121], [60.7222751, 55.6603823], [60.7096464, 55.659649], [60.6893239, 55.6593257], [60.6894955, 55.6561998], [60.6830541, 55.6560646], [60.6827903, 55.6592265], [60.6751262, 55.659077], [60.6699442, 55.6605477], [60.6697725, 55.6678095], [60.6886553, 55.6706171], [60.7118714, 55.6669382], [60.7143605, 55.6764487], [60.7257856, 55.6894569], [60.7448475, 55.6873523], [60.7491519, 55.7000859], [60.7505384, 55.7048461], [60.7514329, 55.7079171], [60.7523749, 55.7098194], [60.7522652, 55.7099352], [60.752367, 55.7099943], [60.7523656, 55.7102089], [60.7523613, 55.7102867], [60.7523539, 55.7103463], [60.752656, 55.7109394], [60.7545642, 55.7141455]]]}}]}