{"type": "FeatureCollection", "features": [{"type": "Feature", "properties": {"barrier": "wall", "landuse": "industrial", "name": "\u0424\u0413\u0423\u041f \u00ab\u0413\u043e\u0440\u043d\u043e-\u0445\u0438\u043c\u0438\u0447\u0435\u0441\u043a\u0438\u0439 \u043a\u043e\u043c\u0431\u0438\u043d\u0430\u0442\u00bb", "name:de": "Kerntechnische Anlage Schelesnogorsk", "wikidata": "Q1739548", "wikipedia": "ru:\u0413\u043e\u0440\u043d\u043e-\u0445\u0438\u043c\u0438\u0447\u0435\u0441\u043a\u0438\u0439 \u043a\u043e\u043c\u0431\u0438\u043d\u0430\u0442 (\u0416\u0435\u043b\u0435\u0437\u043d\u043e\u0433\u043e\u0440\u0441\u043a)", "osm": "way/197752192"}, "geometry": {"type": "Polygon", "coordinates": [[[93.6376969, 56.3552531], [93.6376755, 56.3525544], [93.6381261, 56.3516389], [93.6372249, 56.3491777], [93.638816, 56.3486545], [93.638872, 56.3485355], [93.6393921, 56.3474297], [93.6451427, 56.3466806], [93.6501456, 56.3480718], [93.652095, 56.3499743], [93.6520553, 56.3512227], [93.6543084, 56.3532677], [93.6566011, 56.3548014], [93.6545659, 56.3583084], [93.6535756, 56.3590929], [93.6478035, 56.3587601], [93.647599, 56.3587242], [93.646516, 56.3585342], [93.6455719, 56.3603173], [93.6448241, 56.3601984], [93.6439197, 56.3587838], [93.6429423, 56.3583399], [93.6428468, 56.3582965], [93.6376969, 56.3552531]]]}}]}