{"type": "FeatureCollection", "features": [{"type": "Feature", "properties": {"contact:website": "http://atomsib.ru/struktura-kombinata/\u0437\u0430\u0432\u043e\u0434-\u0440\u0430\u0437\u0434\u0435\u043b\u0435\u043d\u0438\u044f-\u0438\u0437\u0442\u043e\u043f\u043e\u0432", "landuse": "industrial", "name": "\u0417\u0430\u0432\u043e\u0434 \u0440\u0430\u0437\u0434\u0435\u043b\u0435\u043d\u0438\u044f \u0438\u0437\u043e\u0442\u043e\u043f\u043e\u0432", "name:en": "Isotope separation plant", "operator": "\u0421\u0438\u0431\u0438\u0440\u0441\u043a\u0438\u0439 \u0445\u0438\u043c\u0438\u0447\u0435\u0441\u043a\u0438\u0439 \u043a\u043e\u043c\u0431\u0438\u043d\u0430\u0442", "short_name": "\u0417\u0420\u0418", "osm": "way/19792255"}, "geometry": {"type": "Polygon", "coordinates": [[[84.8544399, 56.6141126], [84.8672019, 56.6144667], [84.8682366, 56.6139532], [84.8740712, 56.614124], [84.8742105, 56.613791], [84.8834732, 56.6139624], [84.8829248, 56.6251006], [84.8655327, 56.6246435], [84.8634341, 56.6224785], [84.8591348, 56.6223655], [84.8590021, 56.6222556], [84.8536688, 56.6220828], [84.8544399, 56.6141126]]]}}, {"type": "Feature", "properties": {"landuse": "industrial", "name": "\u0420\u0435\u043c\u043e\u043d\u0442\u043d\u043e-\u043c\u0435\u0445\u0430\u043d\u0438\u0447\u0435\u0441\u043a\u0438\u0439 \u0437\u0430\u0432\u043e\u0434", "osm": "way/23597948"}, "geometry": {"type": "Polygon", "coordinates": [[[84.8309352, 56.6213681], [84.8315113, 56.6160831], [84.8388327, 56.6163133], [84.8399453, 56.6163564], [84.8406298, 56.6159461], [84.8425878, 56.6159166], [84.8419795, 56.6175813], [84.8405877, 56.6183313], [84.8399356, 56.6215847], [84.8309352, 56.6213681]]]}}, {"type": "Feature", "properties": {"landuse": "industrial", "name": "\u0421\u0443\u0431\u043b\u0438\u043c\u0430\u0442\u043d\u044b\u0439 \u0437\u0430\u0432\u043e\u0434", "osm": "way/23597957"}, "geometry": {"type": "Polygon", "coordinates": [[[84.821717, 56.6203086], [84.8220335, 56.6170914], [84.8221665, 56.6159792], [84.8240224, 56.6160171], [84.8299079, 56.6161188], [84.8305897, 56.6161273], [84.829887, 56.623097], [84.8260836, 56.622996], [84.821717, 56.6203086]]]}}, {"type": "Feature", "properties": {"contact:website": "http://atomsib.ru/struktura-kombinata/\u0445\u0438\u043c\u0438\u043a\u043e-\u043c\u0435\u0442\u0430\u043b\u043b\u0443\u0440\u0433\u0438\u0447\u0435\u0441\u043a\u0438\u0439-\u0437\u0430\u0432\u043e\u0434", "landuse": "industrial", "name": "\u0425\u0438\u043c\u0438\u043a\u043e-\u043c\u0435\u0442\u0430\u043b\u043b\u0443\u0440\u0433\u0438\u0447\u0435\u0441\u043a\u0438\u0439 \u0437\u0430\u0432\u043e\u0434", "name:en": "Chemical and metallurgical plant", "operator": "\u0421\u0438\u0431\u0438\u0440\u0441\u043a\u0438\u0439 \u0445\u0438\u043c\u0438\u0447\u0435\u0441\u043a\u0438\u0439 \u043a\u043e\u043c\u0431\u0438\u043d\u0430\u0442", "short_name": "\u0425\u041c\u0417", "osm": "way/23597969"}, "geometry": {"type": "Polygon", "coordinates": [[[84.8889101, 56.6410771], [84.8962824, 56.6412532], [84.8959019, 56.6458132], [84.8957887, 56.6468461], [84.8942641, 56.6470319], [84.8942153, 56.6483735], [84.8913834, 56.6482892], [84.8915036, 56.6464113], [84.8915712, 56.6457591], [84.8885743, 56.6456307], [84.8887722, 56.6414947], [84.8889101, 56.6410771]]]}}, {"type": "Feature", "properties": {"contact:website": "http://atomsib.ru/struktura-kombinata/\u0440\u0430\u0434\u0438\u043e\u0445\u0438\u043c\u0438\u0447\u0435\u0441\u043a\u0438\u0439-\u0437\u0430\u0432\u043e\u0434", "landuse": "industrial", "name": "\u0420\u0430\u0434\u0438\u043e\u0445\u0438\u043c\u0438\u0447\u0435\u0441\u043a\u0438\u0439 \u0437\u0430\u0432\u043e\u0434", "name:en": "Radiochemical plant", "operator": "\u0421\u0438\u0431\u0438\u0440\u0441\u043a\u0438\u0439 \u0445\u0438\u043c\u0438\u0447\u0435\u0441\u043a\u0438\u0439 \u043a\u043e\u043c\u0431\u0438\u043d\u0430\u0442", "short_name": "\u0420\u0425\u0417", "osm": "way/220753186"}, "geometry": {"type": "Polygon", "coordinates": [[[84.9118706, 56.6639391], [84.9100681, 56.6593635], [84.9180801, 56.6580087], [84.9238999, 56.6582163], [84.9239294, 56.6565463], [84.9279884, 56.6560917], [84.9276747, 56.6552345], [84.9294326, 56.654998], [84.9299879, 56.6557267], [84.9340149, 56.6549914], [84.9404951, 56.656415], [84.942137, 56.6619628], [84.9395299, 56.6625123], [84.9219986, 56.6646466], [84.9146172, 56.6634792], [84.9118706, 56.6639391]]]}}, {"type": "Feature", "properties": {"landuse": "industrial", "name": "\u0421\u0435\u0432\u0435\u0440\u0441\u043a\u0438\u0439 \u043f\u043e\u043b\u0438\u0433\u043e\u043d \u0441\u043f\u0435\u0446\u0445\u0440\u0430\u043d\u0435\u043d\u0438\u044f", "osm": "way/220753189"}, "geometry": {"type": "Polygon", "coordinates": [[[84.9095243, 56.665296], [84.9125572, 56.6645676], [84.9168058, 56.6694102], [84.9163338, 56.670463], [84.9131151, 56.6711704], [84.9096012, 56.6671623], [84.9086972, 56.6662721], [84.9061401, 56.6663187], [84.905991, 56.6651735], [84.9095243, 56.665296]]]}}]}